CCSDS_OMM_VERS = 2.0
CREATION_DATE  = 
ORIGINATOR     = 

OBJECT_NAME    = ORBVIEW 2 (SEASTAR)
OBJECT_ID      = 1997-037A
CENTER_NAME    = EARTH
REF_FRAME      = TEME
TIME_SYSTEM    = UTC
MEAN_ELEMENT_THEORY = SGP/SGP4

EPOCH          = 2025-11-25T10:03:23.180256
MEAN_MOTION    = 14.35397832
ECCENTRICITY   = .000251
INCLINATION    = 98.8453
RA_OF_ASC_NODE = 126.0585
ARG_OF_PERICENTER = 32.1419
MEAN_ANOMALY   = 327.9918

EPHEMERIS_TYPE = 0
CLASSIFICATION_TYPE = U
NORAD_CAT_ID   = 24883
ELEMENT_SET_NO = 999
REV_AT_EPOCH   = 49351
BSTAR          = .14955E-3
MEAN_MOTION_DOT = .383E-5
MEAN_MOTION_DDOT = 0

CCSDS_OMM_VERS = 2.0
CREATION_DATE  = 
ORIGINATOR     = 

OBJECT_NAME    = SL-16 R/B
OBJECT_ID      = 1998-043G
CENTER_NAME    = EARTH
REF_FRAME      = TEME
TIME_SYSTEM    = UTC
MEAN_ELEMENT_THEORY = SGP/SGP4

EPOCH          = 2025-11-25T19:38:39.871392
MEAN_MOTION    = 14.26019366
ECCENTRICITY   = .0009131
INCLINATION    = 98.8099
RA_OF_ASC_NODE = 277.5443
ARG_OF_PERICENTER = 321.2732
MEAN_ANOMALY   = 38.7792

EPHEMERIS_TYPE = 0
CLASSIFICATION_TYPE = U
NORAD_CAT_ID   = 25400
ELEMENT_SET_NO = 999
REV_AT_EPOCH   = 42418
BSTAR          = .65135E-4
MEAN_MOTION_DOT = .11E-5
MEAN_MOTION_DDOT = 0

CCSDS_OMM_VERS = 2.0
CREATION_DATE  = 
ORIGINATOR     = 

OBJECT_NAME    = SL-16 R/B
OBJECT_ID      = 1998-045B
CENTER_NAME    = EARTH
REF_FRAME      = TEME
TIME_SYSTEM    = UTC
MEAN_ELEMENT_THEORY = SGP/SGP4

EPOCH          = 2025-11-25T14:24:57.806784
MEAN_MOTION    = 14.16170667
ECCENTRICITY   = .0007984
INCLINATION    = 71.0125
RA_OF_ASC_NODE = 40.4693
ARG_OF_PERICENTER = 200.8157
MEAN_ANOMALY   = 159.2643

EPHEMERIS_TYPE = 0
CLASSIFICATION_TYPE = U
NORAD_CAT_ID   = 25407
ELEMENT_SET_NO = 999
REV_AT_EPOCH   = 41236
BSTAR          = .17037E-3
MEAN_MOTION_DOT = .29E-5
MEAN_MOTION_DDOT = 0

CCSDS_OMM_VERS = 2.0
CREATION_DATE  = 
ORIGINATOR     = 

OBJECT_NAME    = ISS (ZARYA)
OBJECT_ID      = 1998-067A
CENTER_NAME    = EARTH
REF_FRAME      = TEME
TIME_SYSTEM    = UTC
MEAN_ELEMENT_THEORY = SGP/SGP4

EPOCH          = 2025-11-25T10:44:58.483104
MEAN_MOTION    = 15.49072731
ECCENTRICITY   = .0003851
INCLINATION    = 51.6313
RA_OF_ASC_NODE = 228.0726
ARG_OF_PERICENTER = 166.4062
MEAN_ANOMALY   = 193.7031

EPHEMERIS_TYPE = 0
CLASSIFICATION_TYPE = U
NORAD_CAT_ID   = 25544
ELEMENT_SET_NO = 999
REV_AT_EPOCH   = 54017
BSTAR          = .25508E-3
MEAN_MOTION_DOT = .13664E-3
MEAN_MOTION_DDOT = 0

CCSDS_OMM_VERS = 2.0
CREATION_DATE  = 
ORIGINATOR     = 

OBJECT_NAME    = CZ-4B R/B
OBJECT_ID      = 1999-025C
CENTER_NAME    = EARTH
REF_FRAME      = TEME
TIME_SYSTEM    = UTC
MEAN_ELEMENT_THEORY = SGP/SGP4

EPOCH          = 2025-11-25T18:09:39.331008
MEAN_MOTION    = 14.18237381
ECCENTRICITY   = .0036003
INCLINATION    = 98.6793
RA_OF_ASC_NODE = 11.4147
ARG_OF_PERICENTER = 284.2046
MEAN_ANOMALY   = 187.8416

EPHEMERIS_TYPE = 0
CLASSIFICATION_TYPE = U
NORAD_CAT_ID   = 25732
ELEMENT_SET_NO = 999
REV_AT_EPOCH   = 37343
BSTAR          = .70917E-4
MEAN_MOTION_DOT = .103E-5
MEAN_MOTION_DDOT = 0

CCSDS_OMM_VERS = 2.0
CREATION_DATE  = 
ORIGINATOR     = 

OBJECT_NAME    = OKEAN-O
OBJECT_ID      = 1999-039A
CENTER_NAME    = EARTH
REF_FRAME      = TEME
TIME_SYSTEM    = UTC
MEAN_ELEMENT_THEORY = SGP/SGP4

EPOCH          = 2025-11-25T18:05:26.884032
MEAN_MOTION    = 14.80118099
ECCENTRICITY   = .0001051
INCLINATION    = 97.9626
RA_OF_ASC_NODE = 25.6008
ARG_OF_PERICENTER = 70.5859
MEAN_ANOMALY   = 289.5467

EPHEMERIS_TYPE = 0
CLASSIFICATION_TYPE = U
NORAD_CAT_ID   = 25860
ELEMENT_SET_NO = 999
REV_AT_EPOCH   = 41901
BSTAR          = .12611E-3
MEAN_MOTION_DOT = .904E-5
MEAN_MOTION_DDOT = 0

CCSDS_OMM_VERS = 2.0
CREATION_DATE  = 
ORIGINATOR     = 

OBJECT_NAME    = SL-16 R/B
OBJECT_ID      = 1999-039B
CENTER_NAME    = EARTH
REF_FRAME      = TEME
TIME_SYSTEM    = UTC
MEAN_ELEMENT_THEORY = SGP/SGP4

EPOCH          = 2025-11-25T18:21:55.027008
MEAN_MOTION    = 14.81549954
ECCENTRICITY   = .0013754
INCLINATION    = 98.0149
RA_OF_ASC_NODE = 23.9135
ARG_OF_PERICENTER = 231.3404
MEAN_ANOMALY   = 128.6578

EPHEMERIS_TYPE = 0
CLASSIFICATION_TYPE = U
NORAD_CAT_ID   = 25861
ELEMENT_SET_NO = 999
REV_AT_EPOCH   = 42147
BSTAR          = .10687E-3
MEAN_MOTION_DOT = .786E-5
MEAN_MOTION_DDOT = 0

CCSDS_OMM_VERS = 2.0
CREATION_DATE  = 
ORIGINATOR     = 

OBJECT_NAME    = DELTA 2 R/B
OBJECT_ID      = 1999-041E
CENTER_NAME    = EARTH
REF_FRAME      = TEME
TIME_SYSTEM    = UTC
MEAN_ELEMENT_THEORY = SGP/SGP4

EPOCH          = 2025-11-25T18:56:20.482080
MEAN_MOTION    = 14.11337328
ECCENTRICITY   = .0504912
INCLINATION    = 51.7626
RA_OF_ASC_NODE = 356.1082
ARG_OF_PERICENTER = 41.8167
MEAN_ANOMALY   = 322.0215

EPHEMERIS_TYPE = 0
CLASSIFICATION_TYPE = U
NORAD_CAT_ID   = 25876
ELEMENT_SET_NO = 999
REV_AT_EPOCH   = 34835
BSTAR          = .19535E-3
MEAN_MOTION_DOT = .966E-5
MEAN_MOTION_DDOT = 0

CCSDS_OMM_VERS = 2.0
CREATION_DATE  = 
ORIGINATOR     = 

OBJECT_NAME    = HELIOS 1B
OBJECT_ID      = 1999-064A
CENTER_NAME    = EARTH
REF_FRAME      = TEME
TIME_SYSTEM    = UTC
MEAN_ELEMENT_THEORY = SGP/SGP4

EPOCH          = 2025-11-25T17:08:37.576320
MEAN_MOTION    = 14.87176883
ECCENTRICITY   = .0002419
INCLINATION    = 98.1751
RA_OF_ASC_NODE = 223.8759
ARG_OF_PERICENTER = 65.7014
MEAN_ANOMALY   = 294.4453

EPHEMERIS_TYPE = 0
CLASSIFICATION_TYPE = U
NORAD_CAT_ID   = 25977
ELEMENT_SET_NO = 999
REV_AT_EPOCH   = 66980
BSTAR          = .28947E-3
MEAN_MOTION_DOT = .2545E-4
MEAN_MOTION_DDOT = 0

CCSDS_OMM_VERS = 2.0
CREATION_DATE  = 
ORIGINATOR     = 

OBJECT_NAME    = TERRA
OBJECT_ID      = 1999-068A
CENTER_NAME    = EARTH
REF_FRAME      = TEME
TIME_SYSTEM    = UTC
MEAN_ELEMENT_THEORY = SGP/SGP4

EPOCH          = 2025-11-25T19:44:24.133056
MEAN_MOTION    = 14.60923712
ECCENTRICITY   = .000314
INCLINATION    = 97.9771
RA_OF_ASC_NODE = 22.1253
ARG_OF_PERICENTER = 132.3061
MEAN_ANOMALY   = 318.0597

EPHEMERIS_TYPE = 0
CLASSIFICATION_TYPE = U
NORAD_CAT_ID   = 25994
ELEMENT_SET_NO = 999
REV_AT_EPOCH   = 37991
BSTAR          = .13696E-3
MEAN_MOTION_DOT = .626E-5
MEAN_MOTION_DDOT = 0

CCSDS_OMM_VERS = 2.0
CREATION_DATE  = 
ORIGINATOR     = 

OBJECT_NAME    = SL-16 R/B
OBJECT_ID      = 2000-006B
CENTER_NAME    = EARTH
REF_FRAME      = TEME
TIME_SYSTEM    = UTC
MEAN_ELEMENT_THEORY = SGP/SGP4

EPOCH          = 2025-11-25T09:03:04.804416
MEAN_MOTION    = 14.15802037
ECCENTRICITY   = .0017486
INCLINATION    = 71.0018
RA_OF_ASC_NODE = 317.1653
ARG_OF_PERICENTER = 333.1017
MEAN_ANOMALY   = 26.9198

EPHEMERIS_TYPE = 0
CLASSIFICATION_TYPE = U
NORAD_CAT_ID   = 26070
ELEMENT_SET_NO = 999
REV_AT_EPOCH   = 33379
BSTAR          = .11635E-3
MEAN_MOTION_DOT = .181E-5
MEAN_MOTION_DDOT = 0

CCSDS_OMM_VERS = 2.0
CREATION_DATE  = 
ORIGINATOR     = 

OBJECT_NAME    = TITAN 4B R/B
OBJECT_ID      = 2000-047B
CENTER_NAME    = EARTH
REF_FRAME      = TEME
TIME_SYSTEM    = UTC
MEAN_ELEMENT_THEORY = SGP/SGP4

EPOCH          = 2025-11-25T18:30:20.365056
MEAN_MOTION    = 15.08599878
ECCENTRICITY   = .0040355
INCLINATION    = 67.9903
RA_OF_ASC_NODE = 332.5056
ARG_OF_PERICENTER = 164.7220
MEAN_ANOMALY   = 195.5159

EPHEMERIS_TYPE = 0
CLASSIFICATION_TYPE = U
NORAD_CAT_ID   = 26474
ELEMENT_SET_NO = 999
REV_AT_EPOCH   = 37723
BSTAR          = .27615E-3
MEAN_MOTION_DOT = .4276E-4
MEAN_MOTION_DDOT = 0

