ORBVIEW 2 (SEASTAR)     
1 24883U 97037A   25329.41901829  .00000383  00000+0  14955-3 0  9996
2 24883  98.8453 126.0585 0002510  32.1419 327.9918 14.35397832493515
SL-16 R/B               
1 25400U 98043G   25329.81851703  .00000110  00000+0  65135-4 0  9994
2 25400  98.8099 277.5443 0009131 321.2732  38.7792 14.26019366424185
SL-16 R/B               
1 25407U 98045B   25329.60066906  .00000290  00000+0  17037-3 0  9999
2 25407  71.0125  40.4693 0007984 200.8157 159.2643 14.16170667412368
ISS (ZARYA)             
1 25544U 98067A   25329.44789911  .00013664  00000+0  25508-3 0  9996
2 25544  51.6313 228.0726 0003851 166.4062 193.7031 15.49072731540170
CZ-4B R/B               
1 25732U 99025C   25329.75670522  .00000103  00000+0  70917-4 0  9990
2 25732  98.6793  11.4147 0036003 284.2046 187.8416 14.18237381373432
OKEAN-O                 
1 25860U 99039A   25329.75378338  .00000904  00000+0  12611-3 0  9992
2 25860  97.9626  25.6008 0001051  70.5859 289.5467 14.80118099419011
SL-16 R/B               
1 25861U 99039B   25329.76522022  .00000786  00000+0  10687-3 0  9994
2 25861  98.0149  23.9135 0013754 231.3404 128.6578 14.81549954421470
DELTA 2 R/B             
1 25876U 99041E   25329.78912595  .00000966  00000+0  19535-3 0  9994
2 25876  51.7626 356.1082 0504912  41.8167 322.0215 14.11337328348351
HELIOS 1B               
1 25977U 99064A   25329.71432380  .00002545  00000+0  28947-3 0  9995
2 25977  98.1751 223.8759 0002419  65.7014 294.4453 14.87176883669801
TERRA                   
1 25994U 99068A   25329.82250154  .00000626  00000+0  13696-3 0  9990
2 25994  97.9771  22.1253 0003140 132.3061 318.0597 14.60923712379917
SL-16 R/B               
1 26070U 00006B   25329.37713894  .00000181  00000+0  11635-3 0  9992
2 26070  71.0018 317.1653 0017486 333.1017  26.9198 14.15802037333795
TITAN 4B R/B            
1 26474U 00047B   25329.77106904  .00004276  00000+0  27615-3 0  9991
2 26474  67.9903 332.5056 0040355 164.7220 195.5159 15.08599878377239
